{
  "type": "FeatureCollection",
  "features": [
    {
      "type": "Feature",
      "properties": {
        "norad_id": 32363,
        "name": "FENGYUN 1C DEB",
        "group": "fengyun-1c-debris",
        "lat": -28.523729424091187,
        "lon": -36.11172904260871,
        "alt_km": 447.52161012805846,
        "timestamp": "2025-12-25T09:48:52.576471+00:00",
        "meta_object_name": "FENGYUN 1C DEB",
        "meta_object_id": "1999-025CZG",
        "meta_epoch": "2025-12-17T08:09:57.409920",
        "meta_mean_motion": 15.48534366,
        "meta_eccentricity": 0.00638192,
        "meta_inclination": 98.3303,
        "meta_ra_of_asc_node": 310.0138,
        "meta_arg_of_pericenter": 125.2276,
        "meta_mean_anomaly": 235.4969,
        "meta_ephemeris_type": 0,
        "meta_classification_type": "U",
        "meta_norad_cat_id": 32363,
        "meta_element_set_no": 999,
        "meta_rev_at_epoch": 96879,
        "meta_bstar": 0.0013930297,
        "meta_mean_motion_dot": 0.00081044,
        "meta_mean_motion_ddot": 0,
        "tle_line1": "1 32363U 99025CZG 25351.34024780  .00081044  00000+0  13930-2 0  9990",
        "tle_line2": "2 32363  98.3303 310.0138 0063819 125.2276 235.4969 15.48534366968795"
      },
      "geometry": {
        "type": "Point",
        "coordinates": [
          -36.11172904260871,
          -28.523729424091187
        ]
      }
    },
    {
      "type": "Feature",
      "properties": {
        "norad_id": 32364,
        "name": "FENGYUN 1C DEB",
        "group": "fengyun-1c-debris",
        "lat": -21.689366204678894,
        "lon": 14.131218842236983,
        "alt_km": 791.3879797122836,
        "timestamp": "2025-12-25T09:48:52.576481+00:00",
        "meta_object_name": "FENGYUN 1C DEB",
        "meta_object_id": "1999-025CZH",
        "meta_epoch": "2025-11-29T08:05:37.624992",
        "meta_mean_motion": 14.14317962,
        "meta_eccentricity": 0.01349396,
        "meta_inclination": 98.2918,
        "meta_ra_of_asc_node": 173.2369,
        "meta_arg_of_pericenter": 222.8285,
        "meta_mean_anomaly": 136.2316,
        "meta_ephemeris_type": 0,
        "meta_classification_type": "U",
        "meta_norad_cat_id": 32364,
        "meta_element_set_no": 999,
        "meta_rev_at_epoch": 63519,
        "meta_bstar": 0.0022712328,
        "meta_mean_motion_dot": 4.699e-05,
        "meta_mean_motion_ddot": 0,
        "tle_line1": "1 32364U 99025CZH 25333.33724103  .00004699  00000+0  22712-2 0  9995",
        "tle_line2": "2 32364  98.2918 173.2369 0134939 222.8285 136.2316 14.14317962635190"
      },
      "geometry": {
        "type": "Point",
        "coordinates": [
          14.131218842236983,
          -21.689366204678894
        ]
      }
    },
    {
      "type": "Feature",
      "properties": {
        "norad_id": 32366,
        "name": "FENGYUN 1C DEB",
        "group": "fengyun-1c-debris",
        "lat": -45.90807662075689,
        "lon": -68.31637060900054,
        "alt_km": 753.8437149033061,
        "timestamp": "2025-12-25T09:48:52.576493+00:00",
        "meta_object_name": "FENGYUN 1C DEB",
        "meta_object_id": "1999-025CZK",
        "meta_epoch": "2025-12-24T02:10:11.884512",
        "meta_mean_motion": 14.1390733,
        "meta_eccentricity": 0.01370794,
        "meta_inclination": 96.7749,
        "meta_ra_of_asc_node": 117.7307,
        "meta_arg_of_pericenter": 233.0077,
        "meta_mean_anomaly": 125.8492,
        "meta_ephemeris_type": 0,
        "meta_classification_type": "U",
        "meta_norad_cat_id": 32366,
        "meta_element_set_no": 999,
        "meta_rev_at_epoch": 93364,
        "meta_bstar": 0.001723619,
        "meta_mean_motion_dot": 3.548e-05,
        "meta_mean_motion_ddot": 0,
        "tle_line1": "1 32366U 99025CZK 25358.09041533  .00003548  00000+0  17236-2 0  9993",
        "tle_line2": "2 32366  96.7749 117.7307 0137079 233.0077 125.8492 14.13907330933646"
      },
      "geometry": {
        "type": "Point",
        "coordinates": [
          -68.31637060900054,
          -45.90807662075689
        ]
      }
    },
    {
      "type": "Feature",
      "properties": {
        "norad_id": 32372,
        "name": "FENGYUN 1C DEB",
        "group": "fengyun-1c-debris",
        "lat": 1.5898978194755427,
        "lon": -123.23492209546666,
        "alt_km": 786.2555786051716,
        "timestamp": "2025-12-25T09:48:52.576504+00:00",
        "meta_object_name": "FENGYUN 1C DEB",
        "meta_object_id": "1999-025CZR",
        "meta_epoch": "2025-12-11T11:21:44.110080",
        "meta_mean_motion": 13.35367723,
        "meta_eccentricity": 0.04586798,
        "meta_inclination": 97.3163,
        "meta_ra_of_asc_node": 226.9338,
        "meta_arg_of_pericenter": 43.4714,
        "meta_mean_anomaly": 320.164,
        "meta_ephemeris_type": 0,
        "meta_classification_type": "U",
        "meta_norad_cat_id": 32372,
        "meta_element_set_no": 999,
        "meta_rev_at_epoch": 60123,
        "meta_bstar": 0.003543376,
        "meta_mean_motion_dot": 3.249e-05,
        "meta_mean_motion_ddot": 0,
        "tle_line1": "1 32372U 99025CZR 25345.47342720  .00003249  00000+0  35434-2 0  9998",
        "tle_line2": "2 32372  97.3163 226.9338 0458679  43.4714 320.1640 13.35367723601231"
      },
      "geometry": {
        "type": "Point",
        "coordinates": [
          -123.23492209546666,
          1.5898978194755427
        ]
      }
    },
    {
      "type": "Feature",
      "properties": {
        "norad_id": 32409,
        "name": "FENGYUN 1C DEB",
        "group": "fengyun-1c-debris",
        "lat": -14.29017695548152,
        "lon": 168.04383738410573,
        "alt_km": 661.5717621037857,
        "timestamp": "2025-12-25T09:48:52.576513+00:00",
        "meta_object_name": "FENGYUN 1C DEB",
        "meta_object_id": "1999-025CZV",
        "meta_epoch": "2025-12-24T17:41:01.140864",
        "meta_mean_motion": 14.76584409,
        "meta_eccentricity": 0.00389222,
        "meta_inclination": 99.5678,
        "meta_ra_of_asc_node": 164.7862,
        "meta_arg_of_pericenter": 116.043,
        "meta_mean_anomaly": 259.1652,
        "meta_ephemeris_type": 0,
        "meta_classification_type": "U",
        "meta_norad_cat_id": 32409,
        "meta_element_set_no": 999,
        "meta_rev_at_epoch": 59016,
        "meta_bstar": 0.0019717094,
        "meta_mean_motion_dot": 0.00013891,
        "meta_mean_motion_ddot": 0,
        "tle_line1": "1 32409U 99025CZV 25358.73681876  .00013891  00000+0  19717-2 0  9990",
        "tle_line2": "2 32409  99.5678 164.7862 0038922 116.0430 259.1652 14.76584409590166"
      },
      "geometry": {
        "type": "Point",
        "coordinates": [
          168.04383738410573,
          -14.29017695548152
        ]
      }
    },
    {
      "type": "Feature",
      "properties": {
        "norad_id": 32411,
        "name": "FENGYUN 1C DEB",
        "group": "fengyun-1c-debris",
        "lat": 30.317624441833818,
        "lon": 101.54911623663617,
        "alt_km": 946.13782285446,
        "timestamp": "2025-12-25T09:48:52.576524+00:00",
        "meta_object_name": "FENGYUN 1C DEB",
        "meta_object_id": "1999-025CZX",
        "meta_epoch": "2025-12-22T01:03:16.729632",
        "meta_mean_motion": 14.09827877,
        "meta_eccentricity": 0.01237302,
        "meta_inclination": 98.4304,
        "meta_ra_of_asc_node": 273.4205,
        "meta_arg_of_pericenter": 349.967,
        "meta_mean_anomaly": 9.9034,
        "meta_ephemeris_type": 0,
        "meta_classification_type": "U",
        "meta_norad_cat_id": 32411,
        "meta_element_set_no": 999,
        "meta_rev_at_epoch": 65945,
        "meta_bstar": 0.00050914783,
        "meta_mean_motion_dot": 9.2e-06,
        "meta_mean_motion_ddot": 0,
        "tle_line1": "1 32411U 99025CZX 25356.04394363  .00000920  00000+0  50915-3 0  9992",
        "tle_line2": "2 32411  98.4304 273.4205 0123730 349.9670   9.9034 14.09827877659455"
      },
      "geometry": {
        "type": "Point",
        "coordinates": [
          101.54911623663617,
          30.317624441833818
        ]
      }
    },
    {
      "type": "Feature",
      "properties": {
        "norad_id": 32414,
        "name": "FENGYUN 1C DEB",
        "group": "fengyun-1c-debris",
        "lat": -75.97020690789537,
        "lon": 108.6544177834295,
        "alt_km": 812.8412941335173,
        "timestamp": "2025-12-25T09:48:52.576534+00:00",
        "meta_object_name": "FENGYUN 1C DEB",
        "meta_object_id": "1999-025DAA",
        "meta_epoch": "2025-12-23T04:00:39.098880",
        "meta_mean_motion": 14.18463584,
        "meta_eccentricity": 0.00450064,
        "meta_inclination": 98.8569,
        "meta_ra_of_asc_node": 67.8084,
        "meta_arg_of_pericenter": 327.2126,
        "meta_mean_anomaly": 32.6258,
        "meta_ephemeris_type": 0,
        "meta_classification_type": "U",
        "meta_norad_cat_id": 32414,
        "meta_element_set_no": 999,
        "meta_rev_at_epoch": 93880,
        "meta_bstar": 0.0013631783,
        "meta_mean_motion_dot": 2.8e-05,
        "meta_mean_motion_ddot": 0,
        "tle_line1": "1 32414U 99025DAA 25357.16711920  .00002800  00000+0  13632-2 0  9994",
        "tle_line2": "2 32414  98.8569  67.8084 0045006 327.2126  32.6258 14.18463584938800"
      },
      "geometry": {
        "type": "Point",
        "coordinates": [
          108.6544177834295,
          -75.97020690789537
        ]
      }
    }
  ]
}